ONEWEB-0517             
1 54135U 22138Y   23328.54745507  .00000159  00000+0  36598-3 0  9997
2 54135  87.9176 131.2052 0001380  80.2510 279.8779 13.19724410 53425
ONEWEB-0518             
1 54136U 22138Z   23328.49059318  .00000080  00000+0  16750-3 0  9991
2 54136  87.9182 131.2169 0001610  83.3841 276.7475 13.19726202 53418
ONEWEB-0519             
1 54137U 22138AA  23328.51587863  .00000134  00000+0  30359-3 0  9997
2 54137  87.9174 131.2085 0001392  74.7471 285.3816 13.19727446 53424
ONEWEB-0520             
1 54138U 22138AB  23328.55061315  .00000109  00000+0  24069-3 0  9994
2 54138  87.9174 131.2042 0001003  81.8188 278.3058 13.19724834 53418
ONEWEB-0521             
1 54139U 22138AC  23328.50797037  .00000079  00000+0  16519-3 0  9994
2 54139  87.9173 131.2084 0001809  84.9943 275.1396 13.19727353 53353
ONEWEB-0522             
1 54140U 22138AD  23328.48743441  .00000109  00000+0  24067-3 0  9994
2 54140  87.9176 131.2152 0001439  94.8139 265.3158 13.19725349 53394
ONEWEB-0523             
1 54141U 22138AE  23328.43463071  .00000005  00000+0 -20708-4 0  9993
2 54141  87.9182 100.7143 0002661 109.5358 250.6062 13.20773286 55789
ONEWEB-0524             
1 54142U 22138AF  23328.42200983  .00000026  00000+0  32300-4 0  9997
2 54142  87.9214 100.7123 0002054 135.7810 224.3488 13.20772200 55789
